{
  "type": "FeatureCollection",
  "features": [
    {
      "type": "Feature",
      "properties": {
        "norad_id": 41866,
        "name": "GOES 16",
        "group": "weather",
        "lat": 0.05818538230423042,
        "lon": 133.66495240812975,
        "alt_km": 35795.944613583495,
        "timestamp": "2025-12-27T09:28:56.109592+00:00",
        "meta_object_name": "GOES 16",
        "meta_object_id": "2016-071A",
        "meta_epoch": "2025-12-27T04:27:00.371808",
        "meta_mean_motion": 1.00271577,
        "meta_eccentricity": 0.0003296,
        "meta_inclination": 0.0809,
        "meta_ra_of_asc_node": 100.6164,
        "meta_arg_of_pericenter": 167.6787,
        "meta_mean_anomaly": 149.7154,
        "meta_ephemeris_type": 0,
        "meta_classification_type": "U",
        "meta_norad_cat_id": 41866,
        "meta_element_set_no": 999,
        "meta_rev_at_epoch": 3337,
        "meta_bstar": 0,
        "meta_mean_motion_dot": -6.9e-07,
        "meta_mean_motion_ddot": 0,
        "tle_line1": "1 41866U 16071A   25361.18542097 -.00000069  00000+0  00000+0 0  9997",
        "tle_line2": "2 41866   0.0809 100.6164 0003296 167.6787 149.7154  1.00271577 33371"
      },
      "geometry": {
        "type": "Point",
        "coordinates": [
          133.66495240812975,
          0.05818538230423042
        ]
      }
    },
    {
      "type": "Feature",
      "properties": {
        "norad_id": 41882,
        "name": "FENGYUN 4A",
        "group": "weather",
        "lat": -1.860362803448091,
        "lon": 1.9310839774977537,
        "alt_km": 35802.91968447402,
        "timestamp": "2025-12-27T09:28:56.109605+00:00",
        "meta_object_name": "FENGYUN 4A",
        "meta_object_id": "2016-077A",
        "meta_epoch": "2025-12-26T09:22:21.494784",
        "meta_mean_motion": 1.00262391,
        "meta_eccentricity": 0.0004534,
        "meta_inclination": 1.8816,
        "meta_ra_of_asc_node": 82.2577,
        "meta_arg_of_pericenter": 143.1389,
        "meta_mean_anomaly": 133.8992,
        "meta_ephemeris_type": 0,
        "meta_classification_type": "U",
        "meta_norad_cat_id": 41882,
        "meta_element_set_no": 999,
        "meta_rev_at_epoch": 3319,
        "meta_bstar": 0,
        "meta_mean_motion_dot": -3.36e-06,
        "meta_mean_motion_ddot": 0,
        "tle_line1": "1 41882U 16077A   25360.39052656 -.00000336  00000+0  00000+0 0  9997",
        "tle_line2": "2 41882   1.8816  82.2577 0004534 143.1389 133.8992  1.00262391 33190"
      },
      "geometry": {
        "type": "Point",
        "coordinates": [
          1.9310839774977537,
          -1.860362803448091
        ]
      }
    },
    {
      "type": "Feature",
      "properties": {
        "norad_id": 41884,
        "name": "CYGFM05",
        "group": "weather",
        "lat": 34.86596083026646,
        "lon": 37.08867791406208,
        "alt_km": 420.67850417934187,
        "timestamp": "2025-12-27T09:28:56.109618+00:00",
        "meta_object_name": "CYGFM05",
        "meta_object_id": "2016-078A",
        "meta_epoch": "2025-12-27T04:28:04.537632",
        "meta_mean_motion": 15.48195074,
        "meta_eccentricity": 0.0010291,
        "meta_inclination": 34.96,
        "meta_ra_of_asc_node": 312.7275,
        "meta_arg_of_pericenter": 307.1889,
        "meta_mean_anomaly": 52.7893,
        "meta_ephemeris_type": 0,
        "meta_classification_type": "U",
        "meta_norad_cat_id": 41884,
        "meta_element_set_no": 999,
        "meta_rev_at_epoch": 50200,
        "meta_bstar": 0.00044895,
        "meta_mean_motion_dot": 0.0002443,
        "meta_mean_motion_ddot": 0,
        "tle_line1": "1 41884U 16078A   25361.18616363  .00024430  00000+0  44895-3 0  9993",
        "tle_line2": "2 41884  34.9600 312.7275 0010291 307.1889  52.7893 15.48195074502000"
      },
      "geometry": {
        "type": "Point",
        "coordinates": [
          37.08867791406208,
          34.86596083026646
        ]
      }
    },
    {
      "type": "Feature",
      "properties": {
        "norad_id": 41885,
        "name": "CYGFM04",
        "group": "weather",
        "lat": 31.989331607303974,
        "lon": 42.2202565488127,
        "alt_km": 412.23201754887305,
        "timestamp": "2025-12-27T09:28:56.109633+00:00",
        "meta_object_name": "CYGFM04",
        "meta_object_id": "2016-078B",
        "meta_epoch": "2025-12-27T02:49:19.249824",
        "meta_mean_motion": 15.50994926,
        "meta_eccentricity": 0.0008788,
        "meta_inclination": 34.9346,
        "meta_ra_of_asc_node": 287.5315,
        "meta_arg_of_pericenter": 331.5011,
        "meta_mean_anomaly": 28.523,
        "meta_ephemeris_type": 0,
        "meta_classification_type": "U",
        "meta_norad_cat_id": 41885,
        "meta_element_set_no": 999,
        "meta_rev_at_epoch": 50217,
        "meta_bstar": 0.00044934,
        "meta_mean_motion_dot": 0.00026999,
        "meta_mean_motion_ddot": 0,
        "tle_line1": "1 41885U 16078B   25361.11758391  .00026999  00000+0  44934-3 0  9991",
        "tle_line2": "2 41885  34.9346 287.5315 0008788 331.5011  28.5230 15.50994926502178"
      },
      "geometry": {
        "type": "Point",
        "coordinates": [
          42.2202565488127,
          31.989331607303974
        ]
      }
    },
    {
      "type": "Feature",
      "properties": {
        "norad_id": 41886,
        "name": "CYGFM02",
        "group": "weather",
        "lat": -10.949726180165833,
        "lon": 119.92884585243698,
        "alt_km": 414.91810915366204,
        "timestamp": "2025-12-27T09:28:56.109644+00:00",
        "meta_object_name": "CYGFM02",
        "meta_object_id": "2016-078C",
        "meta_epoch": "2025-12-27T03:59:50.972352",
        "meta_mean_motion": 15.5242311,
        "meta_eccentricity": 0.0010354,
        "meta_inclination": 34.9434,
        "meta_ra_of_asc_node": 285.3465,
        "meta_arg_of_pericenter": 333.9201,
        "meta_mean_anomaly": 26.0999,
        "meta_ephemeris_type": 0,
        "meta_classification_type": "U",
        "meta_norad_cat_id": 41886,
        "meta_element_set_no": 999,
        "meta_rev_at_epoch": 50231,
        "meta_bstar": 0.00045944,
        "meta_mean_motion_dot": 0.0002909,
        "meta_mean_motion_ddot": 0,
        "tle_line1": "1 41886U 16078C   25361.16656218  .00029090  00000+0  45944-3 0  9999",
        "tle_line2": "2 41886  34.9434 285.3465 0010354 333.9201  26.0999 15.52423110502313"
      },
      "geometry": {
        "type": "Point",
        "coordinates": [
          119.92884585243698,
          -10.949726180165833
        ]
      }
    },
    {
      "type": "Feature",
      "properties": {
        "norad_id": 41887,
        "name": "CYGFM01",
        "group": "weather",
        "lat": 10.292308120386487,
        "lon": 118.53235846533735,
        "alt_km": 422.91733554179336,
        "timestamp": "2025-12-27T09:28:56.109655+00:00",
        "meta_object_name": "CYGFM01",
        "meta_object_id": "2016-078D",
        "meta_epoch": "2025-12-27T04:08:44.941632",
        "meta_mean_motion": 15.48790077,
        "meta_eccentricity": 0.0010091,
        "meta_inclination": 34.9433,
        "meta_ra_of_asc_node": 315.062,
        "meta_arg_of_pericenter": 299.465,
        "meta_mean_anomaly": 60.5065,
        "meta_ephemeris_type": 0,
        "meta_classification_type": "U",
        "meta_norad_cat_id": 41887,
        "meta_element_set_no": 999,
        "meta_rev_at_epoch": 50194,
        "meta_bstar": 0.00043516,
        "meta_mean_motion_dot": 0.00024178,
        "meta_mean_motion_ddot": 0,
        "tle_line1": "1 41887U 16078D   25361.17274238  .00024178  00000+0  43516-3 0  9994",
        "tle_line2": "2 41887  34.9433 315.0620 0010091 299.4650  60.5065 15.48790077501948"
      },
      "geometry": {
        "type": "Point",
        "coordinates": [
          118.53235846533735,
          10.292308120386487
        ]
      }
    },
    {
      "type": "Feature",
      "properties": {
        "norad_id": 41888,
        "name": "CYGFM08",
        "group": "weather",
        "lat": -34.7759116789554,
        "lon": -147.51162103434964,
        "alt_km": 413.859204992953,
        "timestamp": "2025-12-27T09:28:56.109665+00:00",
        "meta_object_name": "CYGFM08",
        "meta_object_id": "2016-078E",
        "meta_epoch": "2025-12-27T03:39:50.071968",
        "meta_mean_motion": 15.50034752,
        "meta_eccentricity": 0.0011163,
        "meta_inclination": 34.9459,
        "meta_ra_of_asc_node": 298.0141,
        "meta_arg_of_pericenter": 323.1952,
        "meta_mean_anomaly": 36.8003,
        "meta_ephemeris_type": 0,
        "meta_classification_type": "U",
        "meta_norad_cat_id": 41888,
        "meta_element_set_no": 999,
        "meta_rev_at_epoch": 50217,
        "meta_bstar": 0.00045658,
        "meta_mean_motion_dot": 0.00026534,
        "meta_mean_motion_ddot": 0,
        "tle_line1": "1 41888U 16078E   25361.15266287  .00026534  00000+0  45658-3 0  9995",
        "tle_line2": "2 41888  34.9459 298.0141 0011163 323.1952  36.8003 15.50034752502174"
      },
      "geometry": {
        "type": "Point",
        "coordinates": [
          -147.51162103434964,
          -34.7759116789554
        ]
      }
    }
  ]
}